SL-8 R/B,1 21088U 91006B   26086.27548412  .00000076  00000+0  61547-4 0  9999,2 21088  82.9448 156.9719 0021947 349.5976  73.8380 13.77496846766496,-49.012020367360066,-29.712690295387667,999716.4413690681
OKEAN-3,1 21397U 91039A   26086.10019360  .00002149  00000+0  14976-3 0  9991,2 21397  82.5165 319.9750 0012311 272.2560  87.7257 15.04905269867656,29.627688227003592,120.657036381551,559948.5687163534
COSMOS 2151,1 21422U 91042A   26086.22600510  .00002557  00000+0  20234-3 0  9997,2 21422  82.4944  66.7547 0012604   8.5922 351.5515 15.00177198865821,-4.259700941483133,-127.61998552922162,578796.8947324262
SL-14 R/B,1 21423U 91042B   26086.31435795  .00000477  00000+0  57250-4 0  9997,2 21423  82.4954 203.6583 0017085 178.3157 181.8118 14.81846921855680,52.54673503921057,-161.33634045506645,638845.472201959
ERS-1,1 21574U 91050A   26086.28354648  .00000318  00000+0  11632-3 0  9993,2 21574  98.7868 104.9597 0032615 148.4656 211.8495 14.39462297818265,-0.9720857426136174,-89.58400161915735,743818.3619567159
ARIANE 40 R/B,1 21610U 91050F   26086.15395089  .00000304  00000+0  10338-3 0  9991,2 21610  98.1976 137.7320 0003626  41.8206 318.3261 14.42906003821513,43.2210885327625,-48.81407067841464,755570.7883156586
INTERCOSMOS 25,1 21819U 91086A   26086.07525676  .00001552  00000+0  29723-3 0  9993,2 21819  82.6018 299.4982 1486591  79.4738 296.9843 12.12057217498799,-21.374480111869758,107.4813657694337,2145374.5423555546
SL-8 R/B,1 21876U 92008B   26086.19641034  .00000032  00000+0  16944-4 0  9995,2 21876  82.9230 254.7513 0035974  86.1045  86.4963 13.75969576711822,8.213531326876133,-119.11669766297402,974311.3257090265
SL-8 R/B,1 21938U 92020B   26086.22287713  .00000034  00000+0  19978-4 0  9994,2 21938  82.9306 140.7439 0027703 247.5148 176.1213 13.75550533703548,51.530377287273915,-63.05780666755229,997747.11339524
USA 81,1 21949U 92023A   26086.19305878  .00000172  00000+0  56307-4 0  9998,2 21949  85.0050 121.3403 0001845  68.0623 292.0765 14.32373481 97296,-78.45697798978814,81.3105370575744,812844.4311558633
COSMOS 2219,1 22219U 92076A   26086.13476518 -.00000234  00000+0 -98088-4 0  9994,2 22219  71.0627 341.6040 0017994 181.6081 178.4986 14.14091411720844,-15.113330841750233,151.42967682880004,838417.0112155669
SL-16 R/B,1 22220U 92076B   26086.27789425 -.00000042  00000+0  28656-5 0  9996,2 22220  71.0000 151.3276 0010668  63.4408   7.9194 14.16864027724326,-69.17360628862951,20.37417733975233,868696.1353524814
COSMOS 2221,1 22236U 92080A   26086.22582447  .00002363  00000+0  20659-3 0  9998,2 22236  82.5006 262.2779 0015413 130.4081 229.8489 14.96270424783418,-1.256610969698678,67.51037549124909,575004.4615016753
SL-16 R/B,1 22285U 92093B   26086.12434828  .00000260  00000+0  15750-3 0  9994,2 22285  71.0232 327.6686 0006444 276.6837  83.3552 14.15453631715621,-63.303459177387815,175.04100640635608,860264.0856424911
COSMOS 2228,1 22286U 92094A   26086.29729899  .00002596  00000+0  22130-3 0  9993,2 22286  82.5183 220.4511 0016766 240.3436 119.6117 14.97277150778698,23.23556641424056,22.373093395084915,576810.0134339209
SL-16 R/B,1 22566U 93016B   26086.30784922 -.00000095  00000+0 -24431-4 0  9990,2 22566  71.0078 178.1805 0012332 291.3710  68.6096 14.15305402704663,33.709029052422146,176.28006288369207,847429.5677729731
COSMOS 2242,1 22626U 93024A   26085.95280677  .00002113  00000+0  18284-3 0  9993,2 22626  82.5160 250.1990 0015008 245.1611 114.8051 14.96620712782973,-31.02294963225789,59.51279957423344,580209.357036792
